CUBESX-HSE 3 (RS42S)    
1 57178U 23091N   26157.58628045  .00017704  00000+0  59271-3 0  9997
2 57178  97.5091 223.0416 0012059 127.3114 232.9227 15.30945052162803
MONITOR-3 (RS58S)       
1 57180U 23091Q   26157.58756752  .00014621  00000+0  54236-3 0  9998
2 57180  97.5082 220.9574 0012951 133.6220 226.6096 15.27626498162671
MONITOR-4 (RS57S)       
1 57182U 23091S   26157.56724372  .00013347  00000+0  49400-3 0  9992
2 57182  97.5077 220.9075 0012932 133.9860 226.2448 15.27722292162671
MONITOR-2 (RS39S)       
1 57184U 23091U   26157.57412898  .00006622  00000+0  32084-3 0  9990
2 57184  97.5073 215.9262 0012240 143.8298 216.3766 15.18811055162341
SVYATOBOR 1 (RS60S)     
1 57187U 23091X   26157.57130279  .00011679  00000+0  45017-3 0  9991
2 57187  97.5089 221.3309 0010826 126.2860 233.9380 15.26433812162697
HORS 1                  
1 57188U 23091Y   26157.62311487  .00011519  00000+0  44277-3 0  9990
2 57188  97.5066 221.1468 0010291 125.6028 234.6171 15.26535697162704
VIZARD-METEO (RS38S)    
1 57189U 23091Z   26157.59295931  .00021632  00000+0  62395-3 0  9990
2 57189  97.5090 226.8686 0008739 109.2602 250.9588 15.35686943163060
SITRO-AIS 6 (CHIRKIN)   
1 57192U 23091AC  26157.62144875  .00012488  00000+0  49102-3 0  9998
2 57192  97.5067 220.5970 0012878 139.1385 221.0821 15.25731724162676
SITRO-AIS 8 (ANOKHIN)   
1 57193U 23091AD  26157.57124481  .00018311  00000+0  59606-3 0  9995
2 57193  97.5056 222.9174 0011793 132.4710 227.7530 15.31846603162827
SITRO-AIS 7 (FARTUSHNIY)
1 57194U 23091AE  26157.62245126  .00012330  00000+0  48934-3 0  9999
2 57194  97.5065 220.4285 0012708 139.9583 220.2594 15.25425256162661
AVION KALUGA 650        
1 57195U 23091AF  26157.56538840  .00007236  00000+0  33620-3 0  9996
2 57195  97.5090 217.1856 0011462 141.6288 218.5764 15.20238962162418
HORS 2                  
1 57196U 23091AG  26157.58132157  .00018322  00000+0  60110-3 0  9992
2 57196  97.5087 224.4684 0009541 119.1160 241.1037 15.31618204162901
A-SEANSAT-PG1           
1 57197U 23091AH  26157.59304750  .00023224  00000+0  65056-3 0  9995
2 57197  97.5079 226.9513 0008630 116.3151 243.8980 15.36589121163084
SITRO-AIS 10 (BURDAEV)  
1 57199U 23091AK  26157.58202252  .00024662  00000+0  65565-3 0  9992
2 57199  97.5081 227.8741 0007956 111.4007 248.8087 15.38205962163137
SITRO-AIS 9 (SHCHUKIN)  
1 57201U 23091AM  26157.60509850  .00024051  00000+0  64938-3 0  9998
2 57201  97.5078 227.6357 0008179 111.7423 248.4693 15.37730226163124
UTMN 2 (RS27S)          
1 57203U 23091AP  26157.60968500  .00016770  00000+0  54762-3 0  9994
2 57203  97.5086 224.6863 0009458 115.1737 245.0486 15.31789251162927
SITRO-AIS 12 (SMIRENNIY)
1 57204U 23091AQ  26157.59771576  .00024723  00000+0  66123-3 0  9999
2 57204  97.5091 228.0889 0007845 106.6433 253.5673 15.38020321163146
SITRO-AIS 11 (SHEFFER)  
1 57208U 23091AU  26157.48394195  .00026088  00000+0  68835-3 0  9997
2 57208  97.5088 228.2122 0007709 106.9342 253.2748 15.38428782163142
H2SAT (HEINRICH HERTZ)  
1 57213U 23093A   26155.13748118  .00000014  00000+0  00000+0 0  9990
2 57213   0.0448 123.4904 0000974 332.0680 207.2004  1.00272490 10787
KUZGTU 1 (RS47S)        
1 57217U 23091AV  26157.56808489  .00015447  00000+0  53924-3 0  9992
2 57217  97.5063 221.9418 0012281 130.6657 229.5653 15.29615473162759
QIANKUN-1               
1 57422U 23103B   26155.72319190  .00021052  18557-5  25733-4 0  9995
2 57422  96.1570 201.4333 0025527 146.8008 213.4886 16.07676952165298
FENGYUN 3F              
1 57490U 23111A   26157.61581468  .00000054  00000+0  45873-4 0  9992
2 57490  98.6836 227.8212 0001570 100.6339 259.5015 14.19937361147368
HJ-2F                   
1 57519U 23116A   26157.60348372  .00009425  00000+0  41296-3 0  9998
2 57519  97.3848 163.0078 0010565  82.6414 277.6023 15.22168795157146
XRISM                   
1 57800U 23137A   26157.43317480  .00005488  00000+0  30291-3 0  9999
2 57800  31.0024  69.2561 0007840 217.1216 142.8881 15.12371035151232
METEOR-M2 4             
1 59051U 24039A   26157.63212331  .00000026  00000+0  31502-4 0  9992
2 59051  98.7006 117.0632 0006665 191.5164 168.5862 14.22428471117765
GRBBETA                 
1 60237U 24128C   26157.53451242  .00005306  00000+0  36399-3 0  9998
2 60237  61.9899 253.6391 0042050 132.5031 227.9627 15.06565130104661
TRANSPORTER-11 OBJECT A 
1 60468U 24149A   26157.18620461  .00011533  00000+0  36720-3 0  9996
2 60468  97.3727 237.1516 0001836 244.4089 115.6963 15.32727321100370
WARATAH SEED-1          
1 60469U 24149B   26157.16513734  .00018363  00000+0  53115-3 0  9994
2 60469  97.3685 237.7320 0000481 218.5943 141.5266 15.35667093100421
