OBJECT_NAME,OBJECT_ID,EPOCH,MEAN_MOTION,ECCENTRICITY,INCLINATION,RA_OF_ASC_NODE,ARG_OF_PERICENTER,MEAN_ANOMALY,EPHEMERIS_TYPE,CLASSIFICATION_TYPE,NORAD_CAT_ID,ELEMENT_SET_NO,REV_AT_EPOCH,BSTAR,MEAN_MOTION_DOT,MEAN_MOTION_DDOT
CUBESX-HSE 3 (RS42S),2023-091N,2026-06-06T14:04:14.630880,15.30945052,.00120592,97.5091,223.0416,127.3114,232.9227,0,U,57178,999,16280,.59271025E-3,.17704E-3,0
MONITOR-3 (RS58S),2023-091Q,2026-06-06T14:06:05.833728,15.27626498,.00129517,97.5082,220.9574,133.6220,226.6096,0,U,57180,999,16267,.54236078E-3,.14621E-3,0
MONITOR-4 (RS57S),2023-091S,2026-06-06T13:36:49.857408,15.27722292,.00129329,97.5077,220.9075,133.9860,226.2448,0,U,57182,999,16267,.49399737E-3,.13347E-3,0
MONITOR-2 (RS39S),2023-091U,2026-06-06T13:46:44.743872,15.18811055,.00122406,97.5073,215.9262,143.8298,216.3766,0,U,57184,999,16234,.32084465E-3,.6622E-4,0
SVYATOBOR 1 (RS60S),2023-091X,2026-06-06T13:42:40.561056,15.26433812,.00108265,97.5089,221.3309,126.2860,233.9380,0,U,57187,999,16269,.45016756E-3,.11679E-3,0
HORS 1,2023-091Y,2026-06-06T14:57:17.124768,15.26535697,.00102917,97.5066,221.1468,125.6028,234.6171,0,U,57188,999,16270,.44276757E-3,.11519E-3,0
VIZARD-METEO (RS38S),2023-091Z,2026-06-06T14:13:51.684384,15.35686943,.00087398,97.5090,226.8686,109.2602,250.9588,0,U,57189,999,16306,.62394895E-3,.21632E-3,0
SITRO-AIS 6 (CHIRKIN),2023-091AC,2026-06-06T14:54:53.172000,15.25731724,.00128785,97.5067,220.5970,139.1385,221.0821,0,U,57192,999,16267,.49102105E-3,.12488E-3,0
SITRO-AIS 8 (ANOKHIN),2023-091AD,2026-06-06T13:42:35.551584,15.31846603,.00117933,97.5056,222.9174,132.4710,227.7530,0,U,57193,999,16282,.59606047E-3,.18311E-3,0
SITRO-AIS 7 (FARTUSHNIY),2023-091AE,2026-06-06T14:56:19.788864,15.25425256,.00127083,97.5065,220.4285,139.9583,220.2594,0,U,57194,999,16266,.48933615E-3,.1233E-3,0
AVION KALUGA 650,2023-091AF,2026-06-06T13:34:09.557760,15.20238962,.0011462,97.5090,217.1856,141.6288,218.5764,0,U,57195,999,16241,.3361989E-3,.7236E-4,0
HORS 2,2023-091AG,2026-06-06T13:57:06.183648,15.31618204,.0009541,97.5087,224.4684,119.1160,241.1037,0,U,57196,999,16290,.60110195E-3,.18322E-3,0
A-SEANSAT-PG1,2023-091AH,2026-06-06T14:13:59.304000,15.36589121,.00086308,97.5079,226.9513,116.3151,243.8980,0,U,57197,999,16308,.65055615E-3,.23224E-3,0
SITRO-AIS 10 (BURDAEV),2023-091AK,2026-06-06T13:58:06.745728,15.38205962,.00079564,97.5081,227.8741,111.4007,248.8087,0,U,57199,999,16313,.65564551E-3,.24662E-3,0
SITRO-AIS 9 (SHCHUKIN),2023-091AM,2026-06-06T14:31:20.510400,15.37730226,.00081794,97.5078,227.6357,111.7423,248.4693,0,U,57201,999,16312,.64938268E-3,.24051E-3,0
UTMN 2 (RS27S),2023-091AP,2026-06-06T14:37:56.784000,15.31789251,.00094581,97.5086,224.6863,115.1737,245.0486,0,U,57203,999,16292,.5476162E-3,.1677E-3,0
SITRO-AIS 12 (SMIRENNIY),2023-091AQ,2026-06-06T14:20:42.641664,15.38020321,.0007845,97.5091,228.0889,106.6433,253.5673,0,U,57204,999,16314,.66123235E-3,.24723E-3,0
SITRO-AIS 11 (SHEFFER),2023-091AU,2026-06-06T11:36:52.584480,15.38428782,.00077098,97.5088,228.2122,106.9342,253.2748,0,U,57208,999,16314,.68834941E-3,.26088E-3,0
H2SAT (HEINRICH HERTZ),2023-093A,2026-06-04T03:17:58.373952,1.00272490,.00009749,0.0448,123.4904,332.0680,207.2004,0,U,57213,999,1078,0,.14E-6,0
KUZGTU 1 (RS47S),2023-091AV,2026-06-06T13:38:02.534496,15.29615473,.00122813,97.5063,221.9418,130.6657,229.5653,0,U,57217,999,16275,.53923971E-3,.15447E-3,0
QIANKUN-1,2023-103B,2026-06-04T17:21:23.780160,16.07676952,.00255273,96.1570,201.4333,146.8008,213.4886,0,U,57422,999,16529,.25732611E-4,.21052E-3,.1855709E-5
FENGYUN 3F,2023-111A,2026-06-06T14:46:46.388352,14.19937361,.00015705,98.6836,227.8212,100.6339,259.5015,0,U,57490,999,14736,.45873472E-4,.54E-6,0
HJ-2F,2023-116A,2026-06-06T14:29:00.993408,15.22168795,.00105653,97.3848,163.0078,82.6414,277.6023,0,U,57519,999,15714,.41295537E-3,.9425E-4,0
XRISM,2023-137A,2026-06-06T10:23:46.302720,15.12371035,.00078406,31.0024,69.2561,217.1216,142.8881,0,U,57800,999,15123,.30290679E-3,.5488E-4,0
METEOR-M2 4,2024-039A,2026-06-06T15:10:15.453984,14.22428471,.00066652,98.7006,117.0632,191.5164,168.5862,0,U,59051,999,11776,.3150158E-4,.26E-6,0
GRBBETA,2024-128C,2026-06-06T12:49:41.873088,15.06565130,.00420504,61.9899,253.6391,132.5031,227.9627,0,U,60237,999,10466,.36398835E-3,.5306E-4,0
TRANSPORTER-11 OBJECT A,2024-149A,2026-06-06T04:28:08.078304,15.32727321,.00018368,97.3727,237.1516,244.4089,115.6963,0,U,60468,999,10037,.36720098E-3,.11533E-3,0
WARATAH SEED-1,2024-149B,2026-06-06T03:57:47.866176,15.35667093,.00004814,97.3685,237.7320,218.5943,141.5266,0,U,60469,999,10042,.5311519E-3,.18363E-3,0
